      2.10          N: GNSS NAV DATA                        RINEX VERSION / TYPE
fic2rin                                 06/16/2024 00:59:02 PGM / RUN BY / DATE
                                                            END OF HEADER
6  24  6 15  1 59 44.0  .218017026782D-03 -.212594386539D-10  .000000000000D+00
     .330000000000D+02 -.161875000000D+02  .363122268357D-08  .114239975303D+01
    -.715255737305D-06  .295168661978D-02  .817701220512D-05  .515363980103D+04
     .525584000000D+06  .912696123123D-07  .178323520160D+01 -.223517417908D-07
     .989527107604D+00  .236875000000D+03 -.692786074601D+00 -.768532012443D-08
     .771460705864D-10  .100000000000D+01  .231800000000D+04  .000000000000D+00
     .240000000000D+01  .000000000000D+00  .372529029846D-08  .330000000000D+02
     .518400000000D+06  .400000000000D+01
5  24  6 15  2  0  0.0 -.176352448761D-03 -.136424205266D-11  .000000000000D+00
     .400000000000D+01  .406250000000D+01  .437375361297D-08 -.280218354478D+01
    -.745058059692D-07  .590457965154D-02  .662356615067D-05  .515362870407D+04
     .525600000000D+06  .115483999252D-06  .276806058851D+01 -.186264514923D-08
     .971876614768D+00  .255343750000D+03  .126499877758D+01 -.794997400547D-08
     .352514683652D-09  .100000000000D+01  .231800000000D+04  .000000000000D+00
     .240000000000D+01  .000000000000D+00 -.107102096081D-07  .400000000000D+01
     .518400000000D+06  .400000000000D+01
7  24  6 15  2  0  0.0 -.928556546569D-04  .104591890704D-10  .000000000000D+00
     .170000000000D+02 -.107812500000D+02  .493806283300D-08  .267905956524D+00
    -.275671482086D-06  .186097769765D-01  .930204987526D-05  .515363247681D+04
     .525600000000D+06 -.203028321266D-06 -.137263140848D+01  .201165676117D-06
     .949918376782D+00  .196750000000D+03 -.211600807513D+01 -.842570810742D-08
    -.262153776900D-09  .100000000000D+01  .231800000000D+04  .000000000000D+00
     .240000000000D+01  .000000000000D+00 -.111758708954D-07  .170000000000D+02
     .518400000000D+06  .400000000000D+01
4  24  6 15  2  0  0.0  .383377075195D-03  .807176547823D-11  .000000000000D+00
     .560000000000D+02 -.399687500000D+02  .477019869792D-08  .278401831543D+01
    -.201724469662D-05  .284293992445D-02  .626035034657D-05  .515373514175D+04
     .525600000000D+06 -.372529029846D-07 -.238553926050D+01 -.931322574615D-08
     .965063718960D+00  .264093750000D+03 -.295389043467D+01 -.811462372094D-08
    -.360729311538D-10  .100000000000D+01  .231800000000D+04  .000000000000D+00
     .240000000000D+01  .000000000000D+00 -.465661287308D-08  .560000000000D+02
     .518400000000D+06  .400000000000D+01
2  24  6 15  2  0  0.0 -.417546834797D-03  .704858393874D-11  .000000000000D+00
     .117000000000D+03 -.275625000000D+02  .408124142866D-08 -.294525002942D+01
    -.140070915222D-05  .159773044288D-01  .810436904430D-05  .515370405006D+04
     .525600000000D+06  .132247805595D-06  .168448282284D+01  .173225998878D-06
     .967131256693D+00  .219218750000D+03 -.117490727323D+01 -.770032074927D-08
     .135719938995D-10  .100000000000D+01  .231800000000D+04  .000000000000D+00
     .240000000000D+01  .000000000000D+00 -.176951289177D-07  .117000000000D+03
     .518400000000D+06  .400000000000D+01
1  24  6 15  2  0  0.0  .259444583207D-03 -.613908923697D-11  .000000000000D+00
     .270000000000D+02  .644062500000D+02  .587024451925D-08 -.172565849253D+01
     .334717333317D-05  .133792979177D-01  .715442001820D-05  .515376832199D+04
     .525600000000D+06  .335276126862D-06 -.309588603402D+00 -.689178705215D-07
     .954552417031D+00  .238375000000D+03  .103071850659D+01 -.798818988303D-08
     .364300888880D-10  .100000000000D+01  .231800000000D+04  .000000000000D+00
     .340000000000D+01  .630000000000D+02 -.195577740669D-07  .270000000000D+02
     .518400000000D+06  .400000000000D+01
3  24  6 15  2  0  0.0  .413885340095D-03  .178488335223D-10  .000000000000D+00
     .940000000000D+02  .290625000000D+01  .417838833236D-08 -.202746349108D+00
     .130385160446D-06  .558950728737D-02  .735558569431D-05  .515370868111D+04
     .525600000000D+06 -.633299350739D-07  .281963258355D+01  .335276126862D-07
     .984946229798D+00  .256125000000D+03  .110047108868D+01 -.795676000242D-08
     .337871216549D-09  .100000000000D+01  .231800000000D+04  .000000000000D+00
     .240000000000D+01  .000000000000D+00  .139698386192D-08  .940000000000D+02
     .518400000000D+06  .400000000000D+01
22 24  6 15 16  0  0.0 -.276449136436D-04 -.488853402203D-11  .000000000000D+00
     .250000000000D+02  .695937500000D+02  .455197532233D-08 -.158012120216D+01
     .385753810406D-05  .142665837193D-01  .779516994953D-05  .515370288277D+04
     .576000000000D+06 -.322237610817D-06 -.236206059273D+00  .204890966415D-06
     .961346749871D+00  .234843750000D+03 -.113316578486D+01 -.812855287257D-08
     .252867675811D-09  .100000000000D+01  .231800000000D+04  .000000000000D+00
     .240000000000D+01  .000000000000D+00 -.111758708954D-07  .250000000000D+02
     .568800000000D+06  .400000000000D+01
27 24  6 15 16  0  0.0 -.283028930426D-04 -.136424205266D-11  .000000000000D+00
     .210000000000D+02  .740625000000D+01  .478234206089D-08 -.203508059538D+01
     .229105353355D-06  .125363550615D-01  .434368848801D-05  .515367974854D+04
     .576000000000D+06  .167638063431D-06  .712876027222D+00 -.409781932831D-07
     .962056840066D+00  .293562500000D+03  .796605341810D+00 -.819927010394D-08
     .642883921553D-10  .100000000000D+01  .231800000000D+04  .000000000000D+00
     .240000000000D+01  .000000000000D+00  .186264514923D-08  .210000000000D+02
     .568800000000D+06  .400000000000D+01
30 24  6 15 16  0  0.0 -.373797956854D-03  .613908923697D-11  .000000000000D+00
     .190000000000D+02 -.161875000000D+02  .493127683605D-08  .117743132918D+01
    -.732019543648D-06  .717447348870D-02  .988878309727D-05  .515363075829D+04
     .576000000000D+06 -.154599547386D-06 -.137271567548D+01 -.111758708954D-07
     .935061598120D+00  .176875000000D+03 -.245478331617D+01 -.822105672573D-08
    -.235009789101D-09  .100000000000D+01  .231800000000D+04  .000000000000D+00
     .240000000000D+01  .000000000000D+00  .419095158577D-08  .190000000000D+02
     .568800000000D+06  .400000000000D+01
24 24  6 15 16  0  0.0 -.477876514196D-03 -.250111042988D-11  .000000000000D+00
     .460000000000D+02 -.198437500000D+02  .487127433670D-08  .234379586448D+01
    -.113621354103D-05  .153613022994D-01  .898912549019D-05  .515371492386D+04
     .576000000000D+06  .335276126862D-07 -.147045116379D+01 -.292435288429D-06
     .933601798982D+00  .191187500000D+03  .981629997858D+00 -.803854912355D-08
    -.567880797372D-10  .100000000000D+01  .231800000000D+04  .000000000000D+00
     .240000000000D+01  .000000000000D+00  .232830643654D-08  .460000000000D+02
     .568800000000D+06  .400000000000D+01
31 24  6 15 16  0  0.0 -.227378681302D-03  .227373675443D-12  .000000000000D+00
     .630000000000D+02 -.134375000000D+01  .445625704956D-08  .440157653922D+00
     .651925802231D-07  .104773981730D-01  .100340694189D-04  .515374072647D+04
     .576000000000D+06 -.707805156708D-07 -.135144767297D+01  .230967998505D-06
     .953890851829D+00  .183437500000D+03  .682459109127D+00 -.805962142987D-08
    -.131076888450D-09  .100000000000D+01  .231800000000D+04  .000000000000D+00
     .240000000000D+01  .000000000000D+00 -.135041773319D-07  .630000000000D+02
     .568800000000D+06  .400000000000D+01
29 24  6 15 16  0  0.0 -.594087410718D-03  .170530256582D-11  .000000000000D+00
     .420000000000D+02  .431250000000D+01  .456840457810D-08 -.209397267553D+01
     .284984707832D-06  .297401996795D-02  .513717532158D-05  .515358008003D+04
     .576000000000D+06 -.987201929092D-07  .796315903468D+00 -.111758708954D-07
     .971200973367D+00  .291125000000D+03  .256994281566D+01 -.814391065514D-08
    -.871464871438D-10  .100000000000D+01  .231800000000D+04  .000000000000D+00
     .240000000000D+01  .000000000000D+00 -.977888703346D-08  .420000000000D+02
     .568800000000D+06  .400000000000D+01
32 24  6 15 16  0  0.0 -.616132281721D-03  .113686837722D-11  .000000000000D+00
     .770000000000D+02 -.310312500000D+02  .463233581252D-08 -.137797884219D+01
    -.162608921528D-05  .777119037230D-02  .630691647530D-05  .515368210793D+04
     .576000000000D+06  .206753611565D-06 -.243091896615D+01  .987201929092D-07
     .962111130419D+00  .260000000000D+03 -.212875526156D+01 -.811605235187D-08
    -.118576367753D-09  .100000000000D+01  .231800000000D+04  .000000000000D+00
     .240000000000D+01  .000000000000D+00  .931322574615D-09  .770000000000D+02
     .568800000000D+06  .400000000000D+01
16 24  6 15 16  0  0.0 -.263508874923D-03  .104591890704D-10  .000000000000D+00
     .460000000000D+02  .695312500000D+02  .453483175109D-08 -.118148789568D+01
     .389851629734D-05  .138262589462D-01  .688247382641D-05  .515357741737D+04
     .576000000000D+06  .322237610817D-06 -.239499599891D+00  .121071934700D-06
     .962025124002D+00  .241562500000D+03  .836860372285D+00 -.812748139937D-08
     .258582199558D-09  .100000000000D+01  .231800000000D+04  .000000000000D+00
     .240000000000D+01  .000000000000D+00 -.102445483208D-07  .460000000000D+02
     .568800000000D+06  .400000000000D+01
21 24  6 15 16  0  0.0  .115276314318D-03 -.238742359215D-11  .000000000000D+00
     .250000000000D+02 -.385937500000D+02  .443661337418D-08 -.225046489189D+01
    -.177882611752D-05  .251721378881D-01  .897236168385D-05  .515368596077D+04
     .576000000000D+06 -.543892383575D-06  .167677713008D+01  .249594449997D-06
     .961384911552D+00  .208812500000D+03 -.560296800736D+00 -.790497213096D-08
    -.184293390845D-09  .100000000000D+01  .231800000000D+04  .000000000000D+00
     .240000000000D+01  .000000000000D+00 -.102445483208D-07  .250000000000D+02
     .568800000000D+06  .400000000000D+01
